{
  "type": "FeatureCollection",
  "features": [
    {
      "type": "Feature",
      "properties": {
        "norad_id": 34619,
        "name": "COSMOS 2251 DEB",
        "group": "cosmos-2251-debris",
        "lat": -11.181968722471893,
        "lon": 172.5755465308847,
        "alt_km": 670.6751837712609,
        "timestamp": "2025-12-25T07:00:34.443020+00:00",
        "meta_object_name": "COSMOS 2251 DEB",
        "meta_object_id": "1993-036WQ",
        "meta_epoch": "2025-12-24T11:23:28.612608",
        "meta_mean_motion": 14.64673165,
        "meta_eccentricity": 0.00947394,
        "meta_inclination": 74.0428,
        "meta_ra_of_asc_node": 177.3884,
        "meta_arg_of_pericenter": 269.562,
        "meta_mean_anomaly": 89.4692,
        "meta_ephemeris_type": 0,
        "meta_classification_type": "U",
        "meta_norad_cat_id": 34619,
        "meta_element_set_no": 999,
        "meta_rev_at_epoch": 89470,
        "meta_bstar": 0.00022155238,
        "meta_mean_motion_dot": 1.224e-05,
        "meta_mean_motion_ddot": 0,
        "tle_line1": "1 34619U 93036WQ  25358.47463672  .00001224  00000+0  22155-3 0  9992",
        "tle_line2": "2 34619  74.0428 177.3884 0094739 269.5620  89.4692 14.64673165894709"
      },
      "geometry": {
        "type": "Point",
        "coordinates": [
          172.5755465308847,
          -11.181968722471893
        ]
      }
    },
    {
      "type": "Feature",
      "properties": {
        "norad_id": 34620,
        "name": "COSMOS 2251 DEB",
        "group": "cosmos-2251-debris",
        "lat": -62.58259739127343,
        "lon": 49.46757666067643,
        "alt_km": 680.9284494103358,
        "timestamp": "2025-12-25T07:00:34.443030+00:00",
        "meta_object_name": "COSMOS 2251 DEB",
        "meta_object_id": "1993-036WR",
        "meta_epoch": "2025-12-24T00:02:58.639776",
        "meta_mean_motion": 14.49266067,
        "meta_eccentricity": 0.00795809,
        "meta_inclination": 74.0508,
        "meta_ra_of_asc_node": 198.4288,
        "meta_arg_of_pericenter": 232.2834,
        "meta_mean_anomaly": 127.1095,
        "meta_ephemeris_type": 0,
        "meta_classification_type": "U",
        "meta_norad_cat_id": 34620,
        "meta_element_set_no": 999,
        "meta_rev_at_epoch": 86990,
        "meta_bstar": 0.0021829914,
        "meta_mean_motion_dot": 8.649e-05,
        "meta_mean_motion_ddot": 0,
        "tle_line1": "1 34620U 93036WR  25358.00206759  .00008649  00000+0  21830-2 0  9990",
        "tle_line2": "2 34620  74.0508 198.4288 0079580 232.2834 127.1095 14.49266067869906"
      },
      "geometry": {
        "type": "Point",
        "coordinates": [
          49.46757666067643,
          -62.58259739127343
        ]
      }
    },
    {
      "type": "Feature",
      "properties": {
        "norad_id": 34622,
        "name": "COSMOS 2251 DEB",
        "group": "cosmos-2251-debris",
        "lat": 70.6429974712993,
        "lon": 49.955059413315816,
        "alt_km": 819.6211079220184,
        "timestamp": "2025-12-25T07:00:34.443040+00:00",
        "meta_object_name": "COSMOS 2251 DEB",
        "meta_object_id": "1993-036WT",
        "meta_epoch": "2025-12-24T20:40:50.649312",
        "meta_mean_motion": 14.22091723,
        "meta_eccentricity": 0.01049596,
        "meta_inclination": 74.0422,
        "meta_ra_of_asc_node": 285.2613,
        "meta_arg_of_pericenter": 4.8683,
        "meta_mean_anomaly": 52.5969,
        "meta_ephemeris_type": 0,
        "meta_classification_type": "U",
        "meta_norad_cat_id": 34622,
        "meta_element_set_no": 999,
        "meta_rev_at_epoch": 86632,
        "meta_bstar": 0.00082163825,
        "meta_mean_motion_dot": 1.899e-05,
        "meta_mean_motion_ddot": 0,
        "tle_line1": "1 34622U 93036WT  25358.86169733  .00001899  00000+0  82164-3 0  9994",
        "tle_line2": "2 34622  74.0422 285.2613 0104959   4.8683  52.5969 14.22091723866324"
      },
      "geometry": {
        "type": "Point",
        "coordinates": [
          49.955059413315816,
          70.6429974712993
        ]
      }
    },
    {
      "type": "Feature",
      "properties": {
        "norad_id": 34626,
        "name": "COSMOS 2251 DEB",
        "group": "cosmos-2251-debris",
        "lat": 29.533785030515322,
        "lon": -51.187950919972295,
        "alt_km": 632.8051196534989,
        "timestamp": "2025-12-25T07:00:34.443050+00:00",
        "meta_object_name": "COSMOS 2251 DEB",
        "meta_object_id": "1993-036WX",
        "meta_epoch": "2025-12-24T21:20:21.564672",
        "meta_mean_motion": 14.7234363,
        "meta_eccentricity": 0.00271767,
        "meta_inclination": 74.0487,
        "meta_ra_of_asc_node": 300.2697,
        "meta_arg_of_pericenter": 25.0906,
        "meta_mean_anomaly": 31.0087,
        "meta_ephemeris_type": 0,
        "meta_classification_type": "U",
        "meta_norad_cat_id": 34626,
        "meta_element_set_no": 999,
        "meta_rev_at_epoch": 89323,
        "meta_bstar": 0.0011610362,
        "meta_mean_motion_dot": 7.364e-05,
        "meta_mean_motion_ddot": 0,
        "tle_line1": "1 34626U 93036WX  25358.88913848  .00007364  00000+0  11610-2 0  9994",
        "tle_line2": "2 34626  74.0487 300.2697 0027176  25.0906  31.0087 14.72343630893232"
      },
      "geometry": {
        "type": "Point",
        "coordinates": [
          -51.187950919972295,
          29.533785030515322
        ]
      }
    },
    {
      "type": "Feature",
      "properties": {
        "norad_id": 34634,
        "name": "COSMOS 2251 DEB",
        "group": "cosmos-2251-debris",
        "lat": 11.045052451001347,
        "lon": -171.99227605697146,
        "alt_km": 689.7667279705884,
        "timestamp": "2025-12-25T07:00:34.443061+00:00",
        "meta_object_name": "COSMOS 2251 DEB",
        "meta_object_id": "1993-036XF",
        "meta_epoch": "2025-12-24T19:29:14.222688",
        "meta_mean_motion": 14.55689208,
        "meta_eccentricity": 0.00436741,
        "meta_inclination": 74.0513,
        "meta_ra_of_asc_node": 12.1162,
        "meta_arg_of_pericenter": 115.808,
        "meta_mean_anomaly": 57.2853,
        "meta_ephemeris_type": 0,
        "meta_classification_type": "U",
        "meta_norad_cat_id": 34634,
        "meta_element_set_no": 999,
        "meta_rev_at_epoch": 88957,
        "meta_bstar": 0.00028015672,
        "meta_mean_motion_dot": 1.211e-05,
        "meta_mean_motion_ddot": 0,
        "tle_line1": "1 34634U 93036XF  25358.81197017  .00001211  00000+0  28016-3 0  9992",
        "tle_line2": "2 34634  74.0513  12.1162 0043674 115.8080  57.2853 14.55689208889577"
      },
      "geometry": {
        "type": "Point",
        "coordinates": [
          -171.99227605697146,
          11.045052451001347
        ]
      }
    },
    {
      "type": "Feature",
      "properties": {
        "norad_id": 34635,
        "name": "COSMOS 2251 DEB",
        "group": "cosmos-2251-debris",
        "lat": -58.05445111258503,
        "lon": -106.23446340371152,
        "alt_km": 685.6769618557755,
        "timestamp": "2025-12-25T07:00:34.443071+00:00",
        "meta_object_name": "COSMOS 2251 DEB",
        "meta_object_id": "1993-036XG",
        "meta_epoch": "2025-12-24T20:54:56.990880",
        "meta_mean_motion": 14.68409074,
        "meta_eccentricity": 0.00276483,
        "meta_inclination": 74.045,
        "meta_ra_of_asc_node": 47.2682,
        "meta_arg_of_pericenter": 111.6675,
        "meta_mean_anomaly": 67.6483,
        "meta_ephemeris_type": 0,
        "meta_classification_type": "U",
        "meta_norad_cat_id": 34635,
        "meta_element_set_no": 999,
        "meta_rev_at_epoch": 73397,
        "meta_bstar": 0.0010285714,
        "meta_mean_motion_dot": 5.958e-05,
        "meta_mean_motion_ddot": 0,
        "tle_line1": "1 34635U 93036XG  25358.87149295  .00005958  00000+0  10286-2 0  9995",
        "tle_line2": "2 34635  74.0450  47.2682 0027648 111.6675  67.6483 14.68409074733972"
      },
      "geometry": {
        "type": "Point",
        "coordinates": [
          -106.23446340371152,
          -58.05445111258503
        ]
      }
    },
    {
      "type": "Feature",
      "properties": {
        "norad_id": 34637,
        "name": "COSMOS 2251 DEB",
        "group": "cosmos-2251-debris",
        "lat": 57.407566027382884,
        "lon": 103.79141415784572,
        "alt_km": 682.3403949601061,
        "timestamp": "2025-12-25T07:00:34.443081+00:00",
        "meta_object_name": "COSMOS 2251 DEB",
        "meta_object_id": "1993-036XJ",
        "meta_epoch": "2025-12-24T16:37:42.451680",
        "meta_mean_motion": 14.60194617,
        "meta_eccentricity": 0.00488497,
        "meta_inclination": 74.0492,
        "meta_ra_of_asc_node": 78.3604,
        "meta_arg_of_pericenter": 145.6397,
        "meta_mean_anomaly": 7.5755,
        "meta_ephemeris_type": 0,
        "meta_classification_type": "U",
        "meta_norad_cat_id": 34637,
        "meta_element_set_no": 999,
        "meta_rev_at_epoch": 88701,
        "meta_bstar": 0.00083895916,
        "meta_mean_motion_dot": 4.084e-05,
        "meta_mean_motion_ddot": 0,
        "tle_line1": "1 34637U 93036XJ  25358.69285245  .00004084  00000+0  83896-3 0  9990",
        "tle_line2": "2 34637  74.0492  78.3604 0048849 145.6397   7.5755 14.60194617887019"
      },
      "geometry": {
        "type": "Point",
        "coordinates": [
          103.79141415784572,
          57.407566027382884
        ]
      }
    }
  ]
}